start=new Date('2022-06-30T00:00:00.000Z').valueOf();
sats=[{"TLE_LINE1":"1 49413U 21104F   22180.66385936  .00001084  00000-0  86203-4 0  9994","TLE_LINE2":"2 49413  53.2158 155.1421 0003276  44.3373 315.7882 15.08845123 35119","PERIAPSIS":"537.463","DECAY_DATE":null,"MEAN_ANOMALY":"315.7882","OBJECT_ID":"2021-104F","MEAN_MOTION":"15.08845123","SITE":"AFETR","PERIOD":"95.437","MEAN_MOTION_DDOT":"0.0000000000000","ECCENTRICITY":"0.00032760","CENTER_NAME":"EARTH","FILE":"3505610","NORAD_CAT_ID":"49413","MEAN_MOTION_DOT":"0.00001084","OBJECT_NAME":"STARLINK-3157","CLASSIFICATION_TYPE":"U","BSTAR":"0.00008620300000","REF_FRAME":"TEME","REV_AT_EPOCH":"3511","GP_ID":"207119997","SEMIMAJOR_AXIS":"6917.865","ARG_OF_PERICENTER":"44.3373","MEAN_ELEMENT_THEORY":"SGP4","INCLINATION":"53.2158","RCS_SIZE":"LARGE","APOAPSIS":"541.996","EPOCH":"2022-06-29T15:55:57.448704","ELEMENT_SET_NO":"999","EPHEMERIS_TYPE":"0","COUNTRY_CODE":"US","LAUNCH_DATE":"2021-11-13","OBJECT_TYPE":"PAYLOAD","TIME_SYSTEM":"UTC","RA_OF_ASC_NODE":"155.1421"},{"EPOCH":"2022-06-29T16:05:13.345440","ELEMENT_SET_NO":"999","EPHEMERIS_TYPE":"0","COUNTRY_CODE":"US","LAUNCH_DATE":"2021-11-13","OBJECT_TYPE":"PAYLOAD","RA_OF_ASC_NODE":"165.1066","TIME_SYSTEM":"UTC","MEAN_ELEMENT_THEORY":"SGP4","INCLINATION":"53.2159","RCS_SIZE":"LARGE","APOAPSIS":"541.881","SEMIMAJOR_AXIS":"6917.868","GP_ID":"207120247","ARG_OF_PERICENTER":"44.1670","REV_AT_EPOCH":"3497","OBJECT_NAME":"STARLINK-3146","MEAN_MOTION_DOT":"0.00000814","CLASSIFICATION_TYPE":"U","BSTAR":"0.00006924600000","REF_FRAME":"TEME","PERIOD":"95.437","MEAN_MOTION_DDOT":"0.0000000000000","ECCENTRICITY":"0.00031050","FILE":"3505610","NORAD_CAT_ID":"49414","CENTER_NAME":"EARTH","SITE":"AFETR","MEAN_MOTION":"15.08843924","TLE_LINE1":"1 49414U 21104G   22180.67029335  .00000814  00000-0  69246-4 0  9992","TLE_LINE2":"2 49414  53.2159 165.1066 0003105  44.1670 315.9569 15.08843924 34970","PERIAPSIS":"537.585","DECAY_DATE":null,"MEAN_ANOMALY":"315.9569","OBJECT_ID":"2021-104G"},{"REF_FRAME":"TEME","CLASSIFICATION_TYPE":"U","BSTAR":"0.00006916100000","MEAN_MOTION_DOT":"0.00000812","OBJECT_NAME":"STARLINK-3159","CENTER_NAME":"EARTH","FILE":"3505610","NORAD_CAT_ID":"49415","ECCENTRICITY":"0.00031240","MEAN_MOTION_DDOT":"0.0000000000000","PERIOD":"95.438","SITE":"AFETR","MEAN_MOTION":"15.08831930","OBJECT_ID":"2021-104H","MEAN_ANOMALY":"322.4778","DECAY_DATE":null,"PERIAPSIS":"537.609","TLE_LINE2":"2 49415  53.2155 153.9696 0003124  37.6433 322.4778 15.08831930 35145","TLE_LINE1":"1 49415U 21104H   22180.92516287  .00000812  00000-0  69161-4 0  9992","RA_OF_ASC_NODE":"153.9696","TIME_SYSTEM":"UTC","OBJECT_TYPE":"PAYLOAD","LAUNCH_DATE":"2021-11-13","COUNTRY_CODE":"US","EPHEMERIS_TYPE":"0","ELEMENT_SET_NO":"999","EPOCH":"2022-06-29T22:12:14.071968","APOAPSIS":"541.931","RCS_SIZE":"LARGE","INCLINATION":"53.2155","MEAN_ELEMENT_THEORY":"SGP4","ARG_OF_PERICENTER":"37.6433","SEMIMAJOR_AXIS":"6917.905","GP_ID":"207120997","REV_AT_EPOCH":"3514"},{"REV_AT_EPOCH":"3497","ARG_OF_PERICENTER":"41.4558","SEMIMAJOR_AXIS":"6917.910","GP_ID":"207121248","APOAPSIS":"542.145","INCLINATION":"53.2154","RCS_SIZE":"LARGE","MEAN_ELEMENT_THEORY":"SGP4","OBJECT_TYPE":"PAYLOAD","LAUNCH_DATE":"2021-11-13","TIME_SYSTEM":"UTC","RA_OF_ASC_NODE":"165.1316","COUNTRY_CODE":"US","ELEMENT_SET_NO":"999","EPHEMERIS_TYPE":"0","EPOCH":"2022-06-29T15:54:38.642400","OBJECT_ID":"2021-104J","MEAN_ANOMALY":"318.6693","PERIAPSIS":"537.406","DECAY_DATE":null,"TLE_LINE2":"2 49416  53.2154 165.1316 0003425  41.4558 318.6693 15.08830149 34978","TLE_LINE1":"1 49416U 21104J   22180.66294725 -.00001342  00000-0 -66222-4 0  9990","MEAN_MOTION":"15.08830149","SITE":"AFETR","CENTER_NAME":"EARTH","FILE":"3505610","NORAD_CAT_ID":"49416","ECCENTRICITY":"0.00034250","PERIOD":"95.438","MEAN_MOTION_DDOT":"0.0000000000000","BSTAR":"-0.00006622200000","CLASSIFICATION_TYPE":"U","REF_FRAME":"TEME","MEAN_MOTION_DOT":"-0.00001342","OBJECT_NAME":"STARLINK-3133"},{"PERIAPSIS":"537.544","DECAY_DATE":null,"OBJECT_ID":"2021-104K","MEAN_ANOMALY":"315.8514","TLE_LINE1":"1 49417U 21104K   22180.32531748  .00001593  00000-0  11820-3 0  9992","TLE_LINE2":"2 49417  53.2169 156.6631 0003209  44.2734 315.8514 15.08834069 35053","MEAN_MOTION":"15.08834069","SITE":"AFETR","NORAD_CAT_ID":"49417","FILE":"3505485","CENTER_NAME":"EARTH","PERIOD":"95.438","MEAN_MOTION_DDOT":"0.0000000000000","ECCENTRICITY":"0.00032090","BSTAR":"0.00011820000000","CLASSIFICATION_TYPE":"U","REF_FRAME":"TEME","MEAN_MOTION_DOT":"0.00001593","OBJECT_NAME":"STARLINK-3154","REV_AT_EPOCH":"3505","ARG_OF_PERICENTER":"44.2734","SEMIMAJOR_AXIS":"6917.899","GP_ID":"207093073","RCS_SIZE":"LARGE","INCLINATION":"53.2169","APOAPSIS":"541.983","MEAN_ELEMENT_THEORY":"SGP4","COUNTRY_CODE":"US","OBJECT_TYPE":"PAYLOAD","LAUNCH_DATE":"2021-11-13","RA_OF_ASC_NODE":"156.6631","TIME_SYSTEM":"UTC","EPOCH":"2022-06-29T07:48:27.430272","ELEMENT_SET_NO":"999","EPHEMERIS_TYPE":"0"},{"CENTER_NAME":"EARTH","FILE":"3505485","NORAD_CAT_ID":"49418","PERIOD":"95.438","MEAN_MOTION_DDOT":"0.0000000000000","ECCENTRICITY":"0.00034680","BSTAR":"-0.00005325000000","CLASSIFICATION_TYPE":"U","REF_FRAME":"TEME","MEAN_MOTION_DOT":"-0.00001136","OBJECT_NAME":"STARLINK-3111","PERIAPSIS":"537.368","DECAY_DATE":null,"OBJECT_ID":"2021-104L","MEAN_ANOMALY":"321.8884","TLE_LINE1":"1 49418U 21104L   22180.46055343 -.00001136  00000-0 -53250-4 0  9999","TLE_LINE2":"2 49418  53.2173 166.0514 0003468  38.2354 321.8884 15.08832856 34937","MEAN_MOTION":"15.08832856","SITE":"AFETR","INCLINATION":"53.2173","RCS_SIZE":"LARGE","APOAPSIS":"542.166","MEAN_ELEMENT_THEORY":"SGP4","COUNTRY_CODE":"US","LAUNCH_DATE":"2021-11-13","OBJECT_TYPE":"PAYLOAD","RA_OF_ASC_NODE":"166.0514","TIME_SYSTEM":"UTC","EPOCH":"2022-06-29T11:03:11.816352","ELEMENT_SET_NO":"999","EPHEMERIS_TYPE":"0","REV_AT_EPOCH":"3493","ARG_OF_PERICENTER":"38.2354","GP_ID":"207092823","SEMIMAJOR_AXIS":"6917.902"},{"GP_ID":"207121498","SEMIMAJOR_AXIS":"6917.888","ARG_OF_PERICENTER":"46.5175","REV_AT_EPOCH":"3496","EPOCH":"2022-06-29T15:33:26.613216","EPHEMERIS_TYPE":"0","ELEMENT_SET_NO":"999","COUNTRY_CODE":"US","TIME_SYSTEM":"UTC","RA_OF_ASC_NODE":"165.2108","OBJECT_TYPE":"PAYLOAD","LAUNCH_DATE":"2021-11-13","MEAN_ELEMENT_THEORY":"SGP4","RCS_SIZE":"LARGE","INCLINATION":"53.2177","APOAPSIS":"541.892","SITE":"AFETR","MEAN_MOTION":"15.08837448","TLE_LINE1":"1 49419U 21104M   22180.64822469 -.00001069  00000-0 -49038-4 0  9995","TLE_LINE2":"2 49419  53.2177 165.2108 0003092  46.5175 313.6074 15.08837448 34963","DECAY_DATE":null,"PERIAPSIS":"537.614","MEAN_ANOMALY":"313.6074","OBJECT_ID":"2021-104M","OBJECT_NAME":"STARLINK-3120","MEAN_MOTION_DOT":"-0.00001069","REF_FRAME":"TEME","CLASSIFICATION_TYPE":"U","BSTAR":"-0.00004903800000","MEAN_MOTION_DDOT":"0.0000000000000","PERIOD":"95.438","ECCENTRICITY":"0.00030920","FILE":"3505610","CENTER_NAME":"EARTH","NORAD_CAT_ID":"49419"},{"RCS_SIZE":"LARGE","INCLINATION":"53.2164","APOAPSIS":"542.192","MEAN_ELEMENT_THEORY":"SGP4","COUNTRY_CODE":"US","OBJECT_TYPE":"PAYLOAD","LAUNCH_DATE":"2021-11-13","TIME_SYSTEM":"UTC","RA_OF_ASC_NODE":"166.0554","EPOCH":"2022-06-29T10:57:53.547264","ELEMENT_SET_NO":"999","EPHEMERIS_TYPE":"0","REV_AT_EPOCH":"3493","ARG_OF_PERICENTER":"43.7143","GP_ID":"207094325","SEMIMAJOR_AXIS":"6917.901","CENTER_NAME":"EARTH","FILE":"3505485","NORAD_CAT_ID":"49420","PERIOD":"95.438","MEAN_MOTION_DDOT":"0.0000000000000","ECCENTRICITY":"0.00035070","CLASSIFICATION_TYPE":"U","BSTAR":"-0.00005514300000","REF_FRAME":"TEME","OBJECT_NAME":"STARLINK-3110","MEAN_MOTION_DOT":"-0.00001166","PERIAPSIS":"537.340","DECAY_DATE":null,"OBJECT_ID":"2021-104N","MEAN_ANOMALY":"316.4126","TLE_LINE1":"1 49420U 21104N   22180.45686976 -.00001166  00000-0 -55143-4 0  9999","TLE_LINE2":"2 49420  53.2164 166.0554 0003507  43.7143 316.4126 15.08833260 34934","SITE":"AFETR","MEAN_MOTION":"15.08833260"},{"MEAN_MOTION_DOT":"-0.00001014","OBJECT_NAME":"STARLINK-3112","REF_FRAME":"TEME","BSTAR":"-0.00004555500000","CLASSIFICATION_TYPE":"U","ECCENTRICITY":"0.00027600","MEAN_MOTION_DDOT":"0.0000000000000","PERIOD":"95.438","FILE":"3505485","NORAD_CAT_ID":"49421","CENTER_NAME":"EARTH","SITE":"AFETR","MEAN_MOTION":"15.08838006","TLE_LINE2":"2 49421  53.2178 166.4298 0002760  42.2770 317.8434 15.08838006 34928","TLE_LINE1":"1 49421U 21104P   22180.37590514 -.00001014  00000-0 -45555-4 0  9991","MEAN_ANOMALY":"317.8434","OBJECT_ID":"2021-104P","DECAY_DATE":null,"PERIAPSIS":"537.842","EPHEMERIS_TYPE":"0","ELEMENT_SET_NO":"999","EPOCH":"2022-06-29T09:01:18.204096","RA_OF_ASC_NODE":"166.4298","TIME_SYSTEM":"UTC","OBJECT_TYPE":"PAYLOAD","LAUNCH_DATE":"2021-11-13","COUNTRY_CODE":"US","MEAN_ELEMENT_THEORY":"SGP4","APOAPSIS":"541.661","RCS_SIZE":"LARGE","INCLINATION":"53.2178","GP_ID":"207092573","SEMIMAJOR_AXIS":"6917.886","ARG_OF_PERICENTER":"42.2770","REV_AT_EPOCH":"3492"},{"SITE":"AFETR","MEAN_MOTION":"15.08838253","MEAN_ANOMALY":"314.6146","OBJECT_ID":"2021-104Q","PERIAPSIS":"537.340","DECAY_DATE":null,"TLE_LINE2":"2 49422  53.2178 165.1913 0003485  45.5130 314.6146 15.08838253 34963","TLE_LINE1":"1 49422U 21104Q   22180.65190682 -.00001326  00000-0 -65143-4 0  9996","CLASSIFICATION_TYPE":"U","BSTAR":"-0.00006514300000","REF_FRAME":"TEME","MEAN_MOTION_DOT":"-0.00001326","OBJECT_NAME":"STARLINK-3161","NORAD_CAT_ID":"49422","FILE":"3505610","CENTER_NAME":"EARTH","ECCENTRICITY":"0.00034850","PERIOD":"95.438","MEAN_MOTION_DDOT":"0.0000000000000","ARG_OF_PERICENTER":"45.5130","GP_ID":"207120248","SEMIMAJOR_AXIS":"6917.886","REV_AT_EPOCH":"3496","LAUNCH_DATE":"2021-11-13","OBJECT_TYPE":"PAYLOAD","TIME_SYSTEM":"UTC","RA_OF_ASC_NODE":"165.1913","COUNTRY_CODE":"US","ELEMENT_SET_NO":"999","EPHEMERIS_TYPE":"0","EPOCH":"2022-06-29T15:38:44.749248","APOAPSIS":"542.162","RCS_SIZE":"LARGE","INCLINATION":"53.2178","MEAN_ELEMENT_THEORY":"SGP4"}];
